IRIDIUM 136             
1 42962U 17061H   23218.42345659  .00000330  00000+0  11063-3 0  9991
2 42962  86.3953 102.3237 0001917  85.1238 275.0177 14.34217609304948
